HAWK-11C                
1 62381U 24247E   26068.51221537  .00009223  00000+0  33290-3 0  9992
2 62381  45.0045 114.8762 0005900 329.7040  30.3502 15.28848020 67743
STARLINK-35800          
1 66291U 25247AC  26068.85377700  .00043180  00000+0  14607-2 0  9998
2 66291  53.1604 190.3322 0001520  33.9728 326.1370 15.30218347 21116
